COMMENT,ORIGINATOR,NORAD_CAT_ID,OBJECT_NAME,OBJECT_TYPE,CLASSIFICATION_TYPE,INTLDES,EPOCH,EPOCH_MICROSECONDS,MEAN_MOTION,ECCENTRICITY,INCLINATION,RA_OF_ASC_NODE,ARG_OF_PERICENTER,MEAN_ANOMALY,EPHEMERIS_TYPE,ELEMENT_SET_NO,REV_AT_EPOCH,BSTAR,MEAN_MOTION_DOT,MEAN_MOTION_DDOT,FILE,TLE_LINE0,TLE_LINE1,TLE_LINE2,OBJECT_ID,OBJECT_NUMBER,SEMIMAJOR_AXIS,PERIOD,APOGEE,PERIGEE,DECAYED,date
GENERATED VIA SPACETRACK.ORG API,18 SPCS,52182,SPACEBEE-128,PAYLOAD,U,22033AB,2023/2/22 5:18,520320,15.33643919,0.0007866,97.3611,136.4896,216.1568,143.9143,0,999,4978,0.0013726,0.0004482,0,3824148,0 SPACEBEE-128,1 52182U 22033AB  23053.22122130  .00044820  00000-0  13726-2 0  9993,2 52182  97.3611 136.4896 0007866 216.1568 143.9143 15.33643919 49787,2022-033AB,52182,6843.088,93.894,470.336,459.571,1,2023/4/26
GENERATED VIA SPACETRACK.ORG API,18 SPCS,52182,SPACEBEE-128,PAYLOAD,U,22033AB,2023/2/23 4:47,430336,15.33736599,0.0007882,97.3605,137.4647,212.6243,147.4513,0,999,4991,0.0015157,0.00049677,0,3827294,0 SPACEBEE-128,1 52182U 22033AB  23054.19988924  .00049677  00000-0  15157-2 0  9996,2 52182  97.3605 137.4647 0007882 212.6243 147.4513 15.33736599 49916,2022-033AB,52182,6842.813,93.888,470.071,459.284,1,2023/4/27
GENERATED VIA SPACETRACK.ORG API,18 SPCS,52182,SPACEBEE-128,PAYLOAD,U,22033AB,2023/2/23 11:03,90592,15.33762598,0.0007896,97.3602,137.7249,211.5903,148.4867,0,999,4997,0.001594,0.00052308,0,3828819,0 SPACEBEE-128,1 52182U 22033AB  23054.46085753  .00052308  00000-0  15940-2 0  9999,2 52182  97.3602 137.7249 0007896 211.5903 148.4867 15.33762598 49977,2022-033AB,52182,6842.735,93.887,470.003,459.197,1,2023/4/28
GENERATED VIA SPACETRACK.ORG API,18 SPCS,52182,SPACEBEE-128,PAYLOAD,U,22033AB,2023/2/23 18:53,164576,15.33789786,0.0007911,97.3602,138.05,210.5249,149.5534,0,999,5002,0.0014066,0.00046152,0,3830532,0 SPACEBEE-128,1 52182U 22033AB  23054.78706209  .00046152  00000-0  14066-2 0  9998,2 52182  97.3602 138.0500 0007911 210.5249 149.5534 15.33789786 50020,2022-033AB,52182,6842.655,93.885,469.933,459.106,1,2023/4/29
GENERATED VIA SPACETRACK.ORG API,18 SPCS,52182,SPACEBEE-128,PAYLOAD,U,22033AB,2023/2/24 4:17,203872,15.33833492,0.0007911,97.36,138.44,209.4194,150.6604,0,999,5008,0.001577,0.00051863,0,3832867,0 SPACEBEE-128,1 52182U 22033AB  23055.17849773  .00051863  00000-0  15770-2 0  9994,2 52182  97.3600 138.4400 0007911 209.4194 150.6604 15.33833492 50088,2022-033AB,52182,6842.525,93.882,469.803,458.976,1,2023/4/30
GENERATED VIA SPACETRACK.ORG API,18 SPCS,52182,SPACEBEE-128,PAYLOAD,U,22033AB,2023/2/24 16:48,343136,15.33875764,0.0007935,97.3598,138.9601,207.467,152.6154,0,999,5014,0.0012115,0.00039815,0,3833384,0 SPACEBEE-128,1 52182U 22033AB  23055.70039749  .00039815  00000-0  12115-2 0  9990,2 52182  97.3598 138.9601 0007935 207.4670 152.6154 15.33875764 50142,2022-033AB,52182,6842.399,93.88,469.693,458.834,1,
GENERATED VIA SPACETRACK.ORG API,18 SPCS,52182,SPACEBEE-128,PAYLOAD,U,22033AB,2023/2/24 16:48,343136,15.33875764,0.0007935,97.3598,138.9601,207.467,152.6154,0,999,5016,0.0012115,0.00039815,0,3835059,0 SPACEBEE-128,1 52182U 22033AB  23055.70039749  .00039815  00000-0  12115-2 0  9990,2 52182  97.3598 138.9601 0007935 207.4670 152.6154 15.33875764 50164,2022-033AB,52182,6842.399,93.88,469.693,458.834,1,
GENERATED VIA SPACETRACK.ORG API,18 SPCS,52182,SPACEBEE-128,PAYLOAD,U,22033AB,2023/2/25 5:20,209728,15.3391971,0.0007925,97.3598,139.4803,205.4474,154.6379,0,999,5024,0.0012006,0.00039509,0,3837605,0 SPACEBEE-128,1 52182U 22033AB  23056.22228252  .00039509  00000-0  12006-2 0  9996,2 52182  97.3598 139.4803 0007925 205.4474 154.6379 15.33919710 50243,2022-033AB,52182,6842.268,93.877,469.556,458.711,1,
GENERATED VIA SPACETRACK.ORG API,18 SPCS,52182,SPACEBEE-128,PAYLOAD,U,22033AB,2023/2/25 17:51,892640,15.33960004,0.0007936,97.3598,140.0005,203.5262,156.5619,0,999,5030,0.0011581,0.0003815,0,3838508,0 SPACEBEE-128,1 52182U 22033AB  23056.74415385  .00038150  00000-0  11581-2 0  9996,2 52182  97.3598 140.0005 0007936 203.5262 156.5619 15.33960004 50308,2022-033AB,52182,6842.148,93.875,469.443,458.583,1,
GENERATED VIA SPACETRACK.ORG API,18 SPCS,52182,SPACEBEE-128,PAYLOAD,U,22033AB,2023/2/25 17:51,892640,15.33960004,0.0007936,97.3598,140.0005,203.5262,156.5619,0,999,5032,0.0011581,0.0003815,0,3839003,0 SPACEBEE-128,1 52182U 22033AB  23056.74415385  .00038150  00000-0  11581-2 0  9996,2 52182  97.3598 140.0005 0007936 203.5262 156.5619 15.33960004 50320,2022-033AB,52182,6842.148,93.875,469.443,458.583,1,
GENERATED VIA SPACETRACK.ORG API,18 SPCS,52182,SPACEBEE-128,PAYLOAD,U,22033AB,2023/2/26 4:49,184640,15.34010454,0.0007954,97.3597,140.4556,202.1363,157.9538,0,999,5037,0.0015827,0.00052346,0,3840224,0 SPACEBEE-128,1 52182U 22033AB  23057.20077760  .00052346  00000-0  15827-2 0  9999,2 52182  97.3597 140.4556 0007954 202.1363 157.9538 15.34010454 50377,2022-033AB,52182,6841.998,93.872,469.305,458.421,1,
GENERATED VIA SPACETRACK.ORG API,18 SPCS,52182,SPACEBEE-128,PAYLOAD,U,22033AB,2023/2/26 11:04,825568,15.34036265,0.0007968,97.3596,140.7159,201.1271,158.9644,0,999,5043,0.0016041,0.00053103,0,3841853,0 SPACEBEE-128,1 52182U 22033AB  23057.46169937  .00053103  00000-0  16041-2 0  9996,2 52182  97.3596 140.7159 0007968 201.1271 158.9644 15.34036265 50434,2022-033AB,52182,6841.922,93.87,469.238,458.335,1,
GENERATED VIA SPACETRACK.ORG API,18 SPCS,52182,SPACEBEE-128,PAYLOAD,U,22033AB,2023/2/26 17:20,84608,15.34058492,0.0007962,97.3595,140.976,200.3383,159.7543,0,999,5047,0.0013934,0.00046108,0,3843368,0 SPACEBEE-128,1 52182U 22033AB  23057.72261672  .00046108  00000-0  13934-2 0  9999,2 52182  97.3595 140.9760 0007962 200.3383 159.7543 15.34058492 50479,2022-033AB,52182,6841.855,93.869,469.168,458.273,1,
GENERATED VIA SPACETRACK.ORG API,18 SPCS,52182,SPACEBEE-128,PAYLOAD,U,22033AB,2023/2/27 4:18,739680,15.34120674,0.0007949,97.3595,141.4312,198.8519,161.243,0,999,5054,0.0019648,0.00065339,0,3846396,0 SPACEBEE-128,1 52182U 22033AB  23058.17920995  .00065339  00000-0  19648-2 0  9994,2 52182  97.3595 141.4312 0007949 198.8519 161.2430 15.34120674 50548,2022-033AB,52182,6841.671,93.865,468.974,458.097,1,
GENERATED VIA SPACETRACK.ORG API,18 SPCS,52182,SPACEBEE-128,PAYLOAD,U,22033AB,2023/2/27 4:18,739680,15.34120674,0.0007949,97.3595,141.4312,198.8519,161.243,0,999,5052,0.0019648,0.00065339,0,3846760,0 SPACEBEE-128,1 52182U 22033AB  23058.17920995  .00065339  00000-0  19648-2 0  9994,2 52182  97.3595 141.4312 0007949 198.8519 161.2430 15.34120674 50526,2022-033AB,52182,6841.671,93.865,468.974,458.097,1,
GENERATED VIA SPACETRACK.ORG API,18 SPCS,52182,SPACEBEE-128,PAYLOAD,U,22033AB,2023/2/28 5:20,587200,15.34291593,0.0008026,97.3592,142.4713,194.9095,165.1913,0,999,5068,0.0020902,0.00069934,0,3847276,0 SPACEBEE-128,1 52182U 22033AB  23059.22277300  .00069934  00000-0  20902-2 0  9996,2 52182  97.3592 142.4713 0008026 194.9095 165.1913 15.34291593 50687,2022-033AB,52182,6841.162,93.854,468.518,457.537,1,
GENERATED VIA SPACETRACK.ORG API,18 SPCS,52182,SPACEBEE-128,PAYLOAD,U,22033AB,2023/2/28 5:20,587200,15.34291593,0.0008026,97.3592,142.4713,194.9095,165.1913,0,999,5070,0.0020902,0.00069934,0,3847542,0 SPACEBEE-128,1 52182U 22033AB  23059.22277300  .00069934  00000-0  20902-2 0  9996,2 52182  97.3592 142.4713 0008026 194.9095 165.1913 15.34291593 50700,2022-033AB,52182,6841.162,93.854,468.518,457.537,1,
GENERATED VIA SPACETRACK.ORG API,18 SPCS,52182,SPACEBEE-128,PAYLOAD,U,22033AB,2023/2/28 17:52,132288,15.34347804,0.000798,97.3591,142.9919,193.3193,166.7841,0,999,5078,0.0015983,0.00053437,0,3847656,0 SPACEBEE-128,1 52182U 22033AB  23059.74451542  .00053437  00000-0  15983-2 0  9999,2 52182  97.3591 142.9919 0007980 193.3193 166.7841 15.34347804 50784,2022-033AB,52182,6840.995,93.851,468.319,457.401,1,
GENERATED VIA SPACETRACK.ORG API,18 SPCS,52182,SPACEBEE-128,PAYLOAD,U,22033AB,2023/2/28 17:52,132288,15.34347804,0.000798,97.3591,142.9919,193.3193,166.7841,0,999,5076,0.0015983,0.00053437,0,3847877,0 SPACEBEE-128,1 52182U 22033AB  23059.74451542  .00053437  00000-0  15983-2 0  9999,2 52182  97.3591 142.9919 0007980 193.3193 166.7841 15.34347804 50762,2022-033AB,52182,6840.995,93.851,468.319,457.401,1,
GENERATED VIA SPACETRACK.ORG API,18 SPCS,52182,SPACEBEE-128,PAYLOAD,U,22033AB,2023/3/1 11:05,285120,15.34427485,0.0007997,97.3592,143.7075,190.9708,169.1362,0,999,5089,0.0017669,0.00059277,0,3848834,0 SPACEBEE-128,1 52182U 22033AB  23060.46187830  .00059277  00000-0  17669-2 0  9997,2 52182  97.3592 143.7075 0007997 190.9708 169.1362 15.34427485 50891,2022-033AB,52182,6840.759,93.846,468.094,457.153,1,
GENERATED VIA SPACETRACK.ORG API,18 SPCS,52182,SPACEBEE-128,PAYLOAD,U,22033AB,2023/3/2 2:44,289824,15.34490585,0.0008036,97.3594,144.3574,188.8993,171.2108,0,999,5097,0.0013936,0.00046754,0,3849141,0 SPACEBEE-128,1 52182U 22033AB  23061.11399641  .00046754  00000-0  13936-2 0  9994,2 52182  97.3594 144.3574 0008036 188.8993 171.2108 15.34490585 50973,2022-033AB,52182,6840.571,93.842,467.933,456.939,1,
GENERATED VIA SPACETRACK.ORG API,18 SPCS,52182,SPACEBEE-128,PAYLOAD,U,22033AB,2023/3/2 4:18,470112,15.34499247,0.0008044,97.3593,144.4224,188.7444,171.366,0,999,5100,0.0014187,0.00047616,0,3849487,0 SPACEBEE-128,1 52182U 22033AB  23061.17920683  .00047616  00000-0  14187-2 0  9993,2 52182  97.3593 144.4224 0008044 188.7444 171.3660 15.34499247 51007,2022-033AB,52182,6840.545,93.842,467.913,456.908,1,
GENERATED VIA SPACETRACK.ORG API,18 SPCS,52182,SPACEBEE-128,PAYLOAD,U,22033AB,2023/3/3 5:20,394144,15.34632078,0.0008173,97.359,145.463,183.176,176.9432,0,999,5114,0.0021174,0.00071631,0,3850005,0 SPACEBEE-128,1 52182U 22033AB  23062.22252771  .00071631  00000-0  21174-2 0  9994,2 52182  97.3590 145.4630 0008173 183.1760 176.9432 15.34632078 51143,2022-033AB,52182,6840.151,93.834,467.606,456.425,1,
